[{"OBJECT_NAME":"LEMUR-2-ANDIS","OBJECT_ID":"2017-042P","EPOCH":"2026-03-09T13:25:33.116448","MEAN_MOTION":15.30557934,"ECCENTRICITY":0.0009101,"INCLINATION":97.3659,"RA_OF_ASC_NODE":249.795,"ARG_OF_PERICENTER":4.3248,"MEAN_ANOMALY":355.807,"EPHEMERIS_TYPE":0,"CLASSIFICATION_TYPE":"U","NORAD_CAT_ID":42838,"ELEMENT_SET_NO":999,"REV_AT_EPOCH":47319,"BSTAR":0.00079875,"MEAN_MOTION_DOT":0.00023598,"MEAN_MOTION_DDOT":0},{"OBJECT_NAME":"STARLINK-32857","OBJECT_ID":"2025-029B","EPOCH":"2026-03-09T18:12:22.677120","MEAN_MOTION":15.30199584,"ECCENTRICITY":0.00011316,"INCLINATION":53.1597,"RA_OF_ASC_NODE":229.6251,"ARG_OF_PERICENTER":71.1515,"MEAN_ANOMALY":288.9609,"EPHEMERIS_TYPE":0,"CLASSIFICATION_TYPE":"U","NORAD_CAT_ID":62949,"ELEMENT_SET_NO":999,"REV_AT_EPOCH":6140,"BSTAR":0.0011005201,"MEAN_MOTION_DOT":0.00032377,"MEAN_MOTION_DDOT":0}]
